{"type": "FeatureCollection", "features": [ {"type": "Feature", "properties": {"norad_id": 66573, "name": "STARLINK-35650", "group": "last-30-days", "lat": -2.8224684023860767, "lon": -6.675184876890249, "alt_km": 355.32290073577497, "timestamp": "2025-12-04T09:47:36.303185+00:00", "meta": {"OBJECT_NAME": "STARLINK-35650", "OBJECT_ID": "2025-268S", "EPOCH": "2025-12-03T22:00:03.000096", "MEAN_MOTION": 15.73308348, "ECCENTRICITY": 0.00018734, "INCLINATION": 42.999, "RA_OF_ASC_NODE": 173.2615, "ARG_OF_PERICENTER": 269.0657, "MEAN_ANOMALY": 10.3869, "EPHEMERIS_TYPE": 0, "CLASSIFICATION_TYPE": "U", "NORAD_CAT_ID": 66573, "ELEMENT_SET_NO": 999, "REV_AT_EPOCH": 325, "BSTAR": -0.014749009, "MEAN_MOTION_DOT": -0.0183622, "MEAN_MOTION_DDOT": 0}, "tle": {"line1": "1 66573U 25268S   25337.91670139 -.01836220  00000+0 -14749-1 0  9995", "line2": "2 66573  42.9990 173.2615 0001873 269.0657  10.3869 15.73308348  3250"}}, "geometry": {"type": "Point", "coordinates": [-6.675184876890249, -2.8224684023860767]}}, {"type": "Feature", "properties": {"norad_id": 66574, "name": "STARLINK-35812", "group": "last-30-days", "lat": -4.129876026367774, "lon": -5.269212742284168, "alt_km": 355.4486895544169, "timestamp": "2025-12-04T09:47:36.303195+00:00", "meta": {"OBJECT_NAME": "STARLINK-35812", "OBJECT_ID": "2025-268T", "EPOCH": "2025-12-03T22:00:03.000096", "MEAN_MOTION": 15.7331489, "ECCENTRICITY": 0.00015127, "INCLINATION": 42.9991, "RA_OF_ASC_NODE": 173.2561, "ARG_OF_PERICENTER": 267.9771, "MEAN_ANOMALY": 13.3965, "EPHEMERIS_TYPE": 0, "CLASSIFICATION_TYPE": "U", "NORAD_CAT_ID": 66574, "ELEMENT_SET_NO": 999, "REV_AT_EPOCH": 325, "BSTAR": -0.014872747, "MEAN_MOTION_DOT": -0.01849753, "MEAN_MOTION_DDOT": 0}, "tle": {"line1": "1 66574U 25268T   25337.91670139 -.01849753  00000+0 -14873-1 0  9999", "line2": "2 66574  42.9991 173.2561 0001512 267.9771  13.3965 15.73314890  3255"}}, "geometry": {"type": "Point", "coordinates": [-5.269212742284168, -4.129876026367774]}}, {"type": "Feature", "properties": {"norad_id": 66575, "name": "STARLINK-35810", "group": "last-30-days", "lat": -5.430233913108372, "lon": -3.863030822350474, "alt_km": 355.5836746950772, "timestamp": "2025-12-04T09:47:36.303209+00:00", "meta": {"OBJECT_NAME": "STARLINK-35810", "OBJECT_ID": "2025-268U", "EPOCH": "2025-12-03T22:00:03.000096", "MEAN_MOTION": 15.7332182, "ECCENTRICITY": 0.00015833, "INCLINATION": 42.999, "RA_OF_ASC_NODE": 173.2512, "ARG_OF_PERICENTER": 268.7406, "MEAN_ANOMALY": 14.5453, "EPHEMERIS_TYPE": 0, "CLASSIFICATION_TYPE": "U", "NORAD_CAT_ID": 66575, "ELEMENT_SET_NO": 999, "REV_AT_EPOCH": 325, "BSTAR": -0.014940014, "MEAN_MOTION_DOT": -0.01857565, "MEAN_MOTION_DDOT": 0}, "tle": {"line1": "1 66575U 25268U   25337.91670139 -.01857565  00000+0 -14940-1 0  9995", "line2": "2 66575  42.9990 173.2512 0001583 268.7406  14.5453 15.73321820  3259"}}, "geometry": {"type": "Point", "coordinates": [-3.863030822350474, -5.430233913108372]}}, {"type": "Feature", "properties": {"norad_id": 66576, "name": "STARLINK-35814", "group": "last-30-days", "lat": -6.730667927626199, "lon": -2.447035041354101, "alt_km": 355.74424079815253, "timestamp": "2025-12-04T09:47:36.303220+00:00", "meta": {"OBJECT_NAME": "STARLINK-35814", "OBJECT_ID": "2025-268V", "EPOCH": "2025-12-03T22:00:03.000096", "MEAN_MOTION": 15.73318313, "ECCENTRICITY": 0.00013718, "INCLINATION": 42.9989, "RA_OF_ASC_NODE": 173.2463, "ARG_OF_PERICENTER": 269.8412, "MEAN_ANOMALY": 15.367, "EPHEMERIS_TYPE": 0, "CLASSIFICATION_TYPE": "U", "NORAD_CAT_ID": 66576, "ELEMENT_SET_NO": 999, "REV_AT_EPOCH": 325, "BSTAR": -0.014927073, "MEAN_MOTION_DOT": -0.01855741, "MEAN_MOTION_DDOT": 0}, "tle": {"line1": "1 66576U 25268V   25337.91670139 -.01855741  00000+0 -14927-1 0  9995", "line2": "2 66576  42.9989 173.2463 0001371 269.8412  15.3670 15.73318313  3250"}}, "geometry": {"type": "Point", "coordinates": [-2.447035041354101, -6.730667927626199]}}, {"type": "Feature", "properties": {"norad_id": 66577, "name": "STARLINK-35815", "group": "last-30-days", "lat": -8.025712626128117, "lon": -1.0244043815808943, "alt_km": 355.750661897383, "timestamp": "2025-12-04T09:47:36.303231+00:00", "meta": {"OBJECT_NAME": "STARLINK-35815", "OBJECT_ID": "2025-268W", "EPOCH": "2025-12-03T22:00:03.000096", "MEAN_MOTION": 15.73321109, "ECCENTRICITY": 0.00012821, "INCLINATION": 42.9991, "RA_OF_ASC_NODE": 173.2419, "ARG_OF_PERICENTER": 265.1979, "MEAN_ANOMALY": 21.9251, "EPHEMERIS_TYPE": 0, "CLASSIFICATION_TYPE": "U", "NORAD_CAT_ID": 66577, "ELEMENT_SET_NO": 999, "REV_AT_EPOCH": 325, "BSTAR": -0.014947435, "MEAN_MOTION_DOT": -0.01858059, "MEAN_MOTION_DDOT": 0}, "tle": {"line1": "1 66577U 25268W   25337.91670139 -.01858059  00000+0 -14947-1 0  9993", "line2": "2 66577  42.9991 173.2419 0001282 265.1979  21.9251 15.73321109  3258"}}, "geometry": {"type": "Point", "coordinates": [-1.0244043815808943, -8.025712626128117]}}, {"type": "Feature", "properties": {"norad_id": 66578, "name": "STARLINK-35743", "group": "last-30-days", "lat": -9.314764960907945, "lon": 0.40551511439169075, "alt_km": 355.88177532434656, "timestamp": "2025-12-04T09:47:36.303242+00:00", "meta": {"OBJECT_NAME": "STARLINK-35743", "OBJECT_ID": "2025-268X", "EPOCH": "2025-12-03T22:00:03.000096", "MEAN_MOTION": 15.73317947, "ECCENTRICITY": 0.00012977, "INCLINATION": 42.9991, "RA_OF_ASC_NODE": 173.2368, "ARG_OF_PERICENTER": 266.3675, "MEAN_ANOMALY": 22.6754, "EPHEMERIS_TYPE": 0, "CLASSIFICATION_TYPE": "U", "NORAD_CAT_ID": 66578, "ELEMENT_SET_NO": 999, "REV_AT_EPOCH": 325, "BSTAR": -0.014923173, "MEAN_MOTION_DOT": -0.01855232, "MEAN_MOTION_DDOT": 0}, "tle": {"line1": "1 66578U 25268X   25337.91670139 -.01855232  00000+0 -14923-1 0  9998", "line2": "2 66578  42.9991 173.2368 0001297 266.3675  22.6754 15.73317947  3255"}}, "geometry": {"type": "Point", "coordinates": [0.40551511439169075, -9.314764960907945]}}, {"type": "Feature", "properties": {"norad_id": 66579, "name": "STARLINK-35868", "group": "last-30-days", "lat": -10.593965133547753, "lon": 1.8417877839608872, "alt_km": 356.00452674806365, "timestamp": "2025-12-04T09:47:36.303252+00:00", "meta": {"OBJECT_NAME": "STARLINK-35868", "OBJECT_ID": "2025-268Y", "EPOCH": "2025-12-03T22:00:03.000096", "MEAN_MOTION": 15.73318423, "ECCENTRICITY": 0.00016478, "INCLINATION": 42.9989, "RA_OF_ASC_NODE": 173.232, "ARG_OF_PERICENTER": 269.7887, "MEAN_ANOMALY": 21.1673, "EPHEMERIS_TYPE": 0, "CLASSIFICATION_TYPE": "U", "NORAD_CAT_ID": 66579, "ELEMENT_SET_NO": 999, "REV_AT_EPOCH": 325, "BSTAR": -0.014908816, "MEAN_MOTION_DOT": -0.01854014, "MEAN_MOTION_DDOT": 0}, "tle": {"line1": "1 66579U 25268Y   25337.91670139 -.01854014  00000+0 -14909-1 0  9990", "line2": "2 66579  42.9989 173.2320 0001647 269.7887  21.1673 15.73318423  3256"}}, "geometry": {"type": "Point", "coordinates": [1.8417877839608872, -10.593965133547753]}}, {"type": "Feature", "properties": {"norad_id": 66580, "name": "STARLINK-35872", "group": "last-30-days", "lat": -11.87120393178896, "lon": 3.295854842723925, "alt_km": 356.08865481281464, "timestamp": "2025-12-04T09:47:36.303262+00:00", "meta": {"OBJECT_NAME": "STARLINK-35872", "OBJECT_ID": "2025-268Z", "EPOCH": "2025-12-03T22:00:03.000096", "MEAN_MOTION": 15.733176, "ECCENTRICITY": 0.00016102, "INCLINATION": 42.999, "RA_OF_ASC_NODE": 173.2277, "ARG_OF_PERICENTER": 269.5609, "MEAN_ANOMALY": 23.3117, "EPHEMERIS_TYPE": 0, "CLASSIFICATION_TYPE": "U", "NORAD_CAT_ID": 66580, "ELEMENT_SET_NO": 999, "REV_AT_EPOCH": 325, "BSTAR": -0.014887954, "MEAN_MOTION_DOT": -0.0185167, "MEAN_MOTION_DDOT": 0}, "tle": {"line1": "1 66580U 25268Z   25337.91670139 -.01851670  00000+0 -14888-1 0  9993", "line2": "2 66580  42.9990 173.2277 0001610 269.5609  23.3117 15.73317600  3254"}}, "geometry": {"type": "Point", "coordinates": [3.295854842723925, -11.87120393178896]}}, {"type": "Feature", "properties": {"norad_id": 66581, "name": "STARLINK-35744", "group": "last-30-days", "lat": -13.139803439168334, "lon": 4.760694308245538, "alt_km": 356.1881313388267, "timestamp": "2025-12-04T09:47:36.303272+00:00", "meta": {"OBJECT_NAME": "STARLINK-35744", "OBJECT_ID": "2025-268AA", "EPOCH": "2025-12-03T22:00:03.000096", "MEAN_MOTION": 15.73336867, "ECCENTRICITY": 0.00015884, "INCLINATION": 42.9991, "RA_OF_ASC_NODE": 173.2218, "ARG_OF_PERICENTER": 269.5135, "MEAN_ANOMALY": 25.2618, "EPHEMERIS_TYPE": 0, "CLASSIFICATION_TYPE": "U", "NORAD_CAT_ID": 66581, "ELEMENT_SET_NO": 999, "REV_AT_EPOCH": 320, "BSTAR": -0.015051206, "MEAN_MOTION_DOT": -0.01870621, "MEAN_MOTION_DDOT": 0}, "tle": {"line1": "1 66581U 25268AA  25337.91670139 -.01870621  00000+0 -15051-1 0  9994", "line2": "2 66581  42.9991 173.2218 0001588 269.5135  25.2618 15.73336867  3207"}}, "geometry": {"type": "Point", "coordinates": [4.760694308245538, -13.139803439168334]}}, {"type": "Feature", "properties": {"norad_id": 66582, "name": "STARLINK-35746", "group": "last-30-days", "lat": -14.400345805981065, "lon": 6.242856462005946, "alt_km": 356.3873231146217, "timestamp": "2025-12-04T09:47:36.303282+00:00", "meta": {"OBJECT_NAME": "STARLINK-35746", "OBJECT_ID": "2025-268AB", "EPOCH": "2025-12-03T22:00:03.000096", "MEAN_MOTION": 15.73336817, "ECCENTRICITY": 0.00014808, "INCLINATION": 42.999, "RA_OF_ASC_NODE": 173.2174, "ARG_OF_PERICENTER": 272.9159, "MEAN_ANOMALY": 23.7773, "EPHEMERIS_TYPE": 0, "CLASSIFICATION_TYPE": "U", "NORAD_CAT_ID": 66582, "ELEMENT_SET_NO": 999, "REV_AT_EPOCH": 325, "BSTAR": -0.015063148, "MEAN_MOTION_DOT": -0.0187181, "MEAN_MOTION_DDOT": 0}, "tle": {"line1": "1 66582U 25268AB  25337.91670139 -.01871810  00000+0 -15063-1 0  9999", "line2": "2 66582  42.9990 173.2174 0001480 272.9159  23.7773 15.73336817  3258"}}, "geometry": {"type": "Point", "coordinates": [6.242856462005946, -14.400345805981065]}}]}